BEIDOU 3 (C01)          
1 36287U 10001A   21026.82473535 -.00000271  00000-0  00000-0 0  9997
2 36287   1.6701  40.1156 0002792 119.1506  44.3651  1.00274597 40443
BEIDOU 5 (C06)          
1 36828U 10036A   21026.82019907 -.00000053  00000-0  00000-0 0  9993
2 36828  54.1716 180.8996 0101743 233.1980 122.9504  1.00245915 38489
BEIDOU 6 (C04)          
1 37210U 10057A   21026.82866097 -.00000102  00000-0  00000-0 0  9997
2 37210   0.8937  51.0567 0005698 191.7046 341.9539  1.00272676 37557
BEIDOU 7 (C07)          
1 37256U 10068A   21026.16765594 -.00000191  00000-0  00000-0 0  9994
2 37256  51.1045 295.6933 0082361 216.7159 149.5132  1.00302359 37074
BEIDOU 8 (C08)          
1 37384U 11013A   21026.90047314 -.00000162  00000-0  00000-0 0  9990
2 37384  59.5796  59.3311 0055473 205.8826 303.1975  1.00293770 35943
BEIDOU 9 (C09)          
1 37763U 11038A   21027.09838242 -.00000034  00000-0  00000+0 0  9994
2 37763  54.4629 183.3311 0077033 223.5986 207.3534  1.00293883 34929
BEIDOU 10 (C10)         
1 37948U 11073A   21027.21380177 -.00000126  00000-0  00000+0 0  9993
2 37948  51.2053 295.2916 0069978 215.8164 147.8674  1.00285022 33686
BEIDOU 11 (C05)         
1 38091U 12008A   21026.84333270  .00000066  00000-0  00000-0 0  9995
2 38091   1.9547  71.5248 0003865 242.8820 174.2094  1.00271101 32751
BEIDOU 12 (C11)         
1 38250U 12018A   21026.89588865 -.00000065  00000-0  00000-0 0  9990
2 38250  56.7569  10.2866 0024515 249.7140 176.2262  1.86234265 59653
BEIDOU 13 (C12)         
1 38251U 12018B   21027.07879766 -.00000066  00000-0  00000+0 0  9995
2 38251  56.6803   9.6379 0015513 254.4200 338.6020  1.86234083 59657
BEIDOU 15 (C14)         
1 38775U 12050B   21026.91776344 -.00000017  00000-0  00000+0 0  9998
2 38775  55.1462 128.7565 0012888 320.4855   1.9290  1.86232227 57021
BEIDOU 16 (C02)         
1 38953U 12059A   21026.85651369 -.00000167  00000-0  00000-0 0  9994
2 38953   1.6318  84.8068 0009267 260.3394 173.5566  1.00271629 30323
BEIDOU 17 (C31)         
1 40549U 15019A   21026.87655453 -.00000163  00000-0  00000-0 0  9993
2 40549  52.7196 318.6268 0036862 189.5958  26.7092  1.00296528 21358
BEIDOU 18 (C57)         
1 40748U 15037A   21027.04101008 -.00000068  00000-0  00000+0 0  9999
2 40748  55.9454   8.8115 0004684 327.3973 150.3548  1.86233378 37485
BEIDOU 19 (C58)         
1 40749U 15037B   21026.90077663 -.00000068  00000-0  00000-0 0  9994
2 40749  55.9485   8.8039 0007267 301.7361 218.7049  1.86232112 37471
BEIDOU 20 (C18)         
1 40938U 15053A   21027.19179716 -.00000090  00000-0  00000+0 0  9990
2 40938  52.2787 281.6787 0046011 191.0280 179.2892  1.00268275 19648
BEIDOU IGSO-6 (C13)     
1 41434U 16021A   21026.90193729 -.00000115  00000-0  00000-0 0  9995
2 41434  57.3549  58.1280 0040372 214.7661 270.8977  1.00297707 17751
BEIDOU-2 G7 (C03)       
1 41586U 16037A   21026.88729855 -.00000345  00000-0  00000-0 0  9997
2 41586   1.9564  69.4947 0008830 355.9126 130.8384  1.00266330 17062
BEIDOU-3 M1 (C19)       
1 43001U 17069A   21026.74500160 -.00000018  00000-0  00000-0 0  9995
2 43001  55.3002 128.6955 0008402 284.5311  78.4561  1.86231660 21961
BEIDOU-3 M2 (C20)       
1 43002U 17069B   21026.72006167 -.00000018  00000-0  00000-0 0  9992
2 43002  55.3005 128.7318 0007016 311.3078  78.5894  1.86231420 21951
BEIDOU-3 M3 (C27)       
1 43107U 18003A   21026.74503561 -.00000069  00000-0  00000-0 0  9995
2 43107  55.3857   9.9652 0003969  23.6434 188.8713  1.86232497 20718
BEIDOU-3 M4 (C28)       
1 43108U 18003B   21026.67752421 -.00000069  00000-0  00000-0 0  9999
2 43108  55.3780   9.9581 0004425 255.6828 316.7512  1.86232495 20714
BEIDOU-3 M5 (C21)       
1 43207U 18018A   21026.80805565 -.00000017  00000-0  00000-0 0  9991
2 43207  55.2592 128.8250 0005246 332.5675  27.4009  1.86231531 20105
BEIDOU-3 M6 (C22)       
1 43208U 18018B   21026.33783639 -.00000021  00000-0  00000-0 0  9992
2 43208  55.2585 128.8457 0007341 296.3807  63.5382  1.86231682 20099
BEIDOU-3 M7 (C29)       
1 43245U 18029A   21026.88161833 -.00000070  00000-0  00000-0 0  9995
2 43245  55.3210   7.7581 0001694 291.1004 283.1124  1.86232593 19258
BEIDOU-3 M8 (C30)       
1 43246U 18029B   21026.81307993 -.00000070  00000-0  10000-3 0  9992
2 43246  55.3187   7.7922 0005152 330.9433 243.3991  1.86233070 19242
BEIDOU IGSO-7 (C16)     
1 43539U 18057A   21026.82396470 -.00000099  00000-0  00000-0 0  9994
2 43539  55.0542 180.2272 0031547 211.9006 144.2979  1.00256593  9420
BEIDOU-3 M9 (C23)       
1 43581U 18062A   21026.94892831  .00000090  00000-0  00000-0 0  9992
2 43581  54.4608 249.4556 0002623 314.7751 200.3950  1.86232084 16994
BEIDOU-3 M10 (C24)      
1 43582U 18062B   21026.46589956  .00000091  00000-0  00000+0 0  9991
2 43582  54.4611 249.4633 0006603   7.7715 274.7674  1.86232229 16984
BEIDOU-3 M11 (C25)      
1 43602U 18067A   21026.94700199  .00000092  00000-0  00000-0 0  9998
2 43602  54.5321 248.0170 0007473   2.6913 284.8526  1.86231430 16483
BEIDOU-3 M12 (C26)      
1 43603U 18067B   21026.61488541  .00000093  00000-0  00000+0 0  9997
2 43603  54.5313 247.9954 0004699 358.8738 336.5049  1.86231723 16492
BEIDOU-3 M13 (C32)      
1 43622U 18072A   21026.62153977 -.00000019  00000-0  00000-0 0  9997
2 43622  55.2251 128.4029 0005267 279.2827  90.9001  1.86231484 16016
BEIDOU-3 M14 (C33)      
1 43623U 18072B   21026.93405278 -.00000017  00000-0  00000+0 0  9993
2 43623  55.2245 128.3843 0003519 311.6605 358.2830  1.86231493 16016
BEIDOU-3 M15 (C34)      
1 43647U 18078A   21025.81796763 -.00000073  00000-0  10000-3 0  9990
2 43647  55.2150   7.9970 0007368 339.9062 196.9338  1.86232966 15505
BEIDOU-3 M16 (C35)      
1 43648U 18078B   21025.41683711 -.00000074  00000-0  10000-3 0  9996
2 43648  55.2112   8.0185 0005073 344.5578 192.0446  1.86232457 15512
BEIDOU-3 G1 (C59)       
1 43683U 18085A   21026.82464811 -.00000267  00000-0  00000-0 0  9997
2 43683   1.3045 242.0225 0003069  18.3712 302.8702  1.00271891  8331
BEIDOU-3 M17 (C36)      
1 43706U 18093A   21026.81018684  .00000091  00000-0  00000+0 0  9997
2 43706  54.5413 249.3086 0008362 280.2290   6.8754  1.86231793 14889
BEIDOU-3 M18 (C37)      
1 43707U 18093B   21026.67300431  .00000091  00000-0  00000-0 0  9997
2 43707  54.5421 249.3052 0007899 308.9704 336.8846  1.86232114 14880
BEIDOU-3 IGSO-1 (C38)   
1 44204U 19023A   21026.39200966 -.00000187  00000-0  00000+0 0  9991
2 44204  55.8131  58.4660 0017604 202.4478 120.2501  1.00282125  6629
BEIDOU-2 G8             
1 44231U 19027A   21026.82560771 -.00000236  00000-0  00000-0 0  9992
2 44231   0.4934 311.0351 0007527 273.5097 343.5665  1.00272679  6354
BEIDOU-3 IGSO-2 (C39)   
1 44337U 19035A   21026.83635706 -.00000098  00000-0  00000-0 0  9996
2 44337  55.0849 176.2735 0016685 184.4605 174.3354  1.00273816  5964
BEIDOU-3 M23 (C45)      
1 44542U 19061A   21026.73146675  .00000091  00000-0  10000-3 0  9990
2 44542  54.7657 249.3542 0008852 340.2727 298.2949  1.86231499  9142
BEIDOU-3 M24 (C46)      
1 44543U 19061B   21025.79955758  .00000091  00000-0  10000-3 0  9996
2 44543  54.7642 249.3560 0005795 339.1303 305.2974  1.86232048  9134
BEIDOU-3 IGSO-3         
1 44709U 19073A   21025.80605692 -.00000164  00000-0  00000-0 0  9992
2 44709  58.0649 301.6277 0019624 195.9990  25.5718  1.00267396  4712
BEIDOU-3 M21            
1 44793U 19078A   21025.34929252 -.00000074  00000-0  10000-3 0  9994
2 44793  55.0640   8.0962 0007021 345.9681 191.2741  1.86232593  7988
BEIDOU-3 M22            
1 44794U 19078B   21026.99648201 -.00000070  00000-0  10000-3 0  9995
2 44794  55.0380   8.0420 0005190 336.7866 135.5280  1.86233114  8011
BEIDOU-3 M19            
1 44864U 19090A   21027.07981348 -.00000015  00000-0  00000+0 0  9993
2 44864  55.1588 128.6272 0014996 261.0831 101.7211  1.86231730  7605
BEIDOU-3 M20            
1 44865U 19090B   21027.09808362 -.00000015  00000-0  00000+0 0  9990
2 44865  55.1609 128.6581 0013613 276.9834 187.9965  1.86231717  7580
BEIDOU-3 G2             
1 45344U 20017A   21026.81269677 -.00000126  00000-0  00000-0 0  9997
2 45344   2.6219 332.9385 0001489   5.6842 160.2888  1.00271416  3538
BEIDOU-3 G3             
1 45807U 20040A   21026.82827220 -.00000339  00000-0  00000-0 0  9998
2 45807   2.6096 298.3912 0010403  14.9195 221.5569  1.00264889  2358
